[{"OBJECT_NAME":"COSMOS 2515","OBJECT_ID":"2016-020A","EPOCH":"2026-03-09T23:19:22.597248","MEAN_MOTION":15.0760084,"ECCENTRICITY":0.00222602,"INCLINATION":97.9825,"RA_OF_ASC_NODE":80.7081,"ARG_OF_PERICENTER":278.8424,"MEAN_ANOMALY":81.0282,"EPHEMERIS_TYPE":0,"CLASSIFICATION_TYPE":"U","NORAD_CAT_ID":41394,"ELEMENT_SET_NO":999,"REV_AT_EPOCH":54546,"BSTAR":0.00011725414,"MEAN_MOTION_DOT":1.724e-5,"MEAN_MOTION_DDOT":0},{"OBJECT_NAME":"STARLINK-4523","OBJECT_ID":"2022-097B","EPOCH":"2026-03-09T10:49:35.599008","MEAN_MOTION":15.08836396,"ECCENTRICITY":0.00012859,"INCLINATION":53.2171,"RA_OF_ASC_NODE":125.1926,"ARG_OF_PERICENTER":92.2224,"MEAN_ANOMALY":267.8915,"EPHEMERIS_TYPE":0,"CLASSIFICATION_TYPE":"U","NORAD_CAT_ID":53389,"ELEMENT_SET_NO":999,"REV_AT_EPOCH":19863,"BSTAR":9.764219e-6,"MEAN_MOTION_DOT":-1.32e-6,"MEAN_MOTION_DDOT":0}]
